{"type": "FeatureCollection", "features": [ {"type": "Feature", "properties": {"norad_id": 31274, "name": "FENGYUN 1C DEB", "group": "fengyun-1c-debris", "lat": 27.40204601380478, "lon": -11.412023809062243, "alt_km": 799.7844886980947, "timestamp": "2025-12-10T09:57:44.980749+00:00", "meta": {"OBJECT_NAME": "FENGYUN 1C DEB", "OBJECT_ID": "1999-025BNG", "EPOCH": "2025-12-09T22:51:06.960960", "MEAN_MOTION": 13.85616852, "ECCENTRICITY": 0.0238277, "INCLINATION": 99.0044, "RA_OF_ASC_NODE": 163.4279, "ARG_OF_PERICENTER": 117.6302, "MEAN_ANOMALY": 244.9263, "EPHEMERIS_TYPE": 0, "CLASSIFICATION_TYPE": "U", "NORAD_CAT_ID": 31274, "ELEMENT_SET_NO": 999, "REV_AT_EPOCH": 94168, "BSTAR": 0.0012677, "MEAN_MOTION_DOT": 1.769e-05, "MEAN_MOTION_DDOT": 0}, "tle": {"line1": "1 31274U 99025BNG 25343.95216390  .00001769  00000+0  12677-2 0  9991", "line2": "2 31274  99.0044 163.4279 0238277 117.6302 244.9263 13.85616852941689"}}, "geometry": {"type": "Point", "coordinates": [-11.412023809062243, 27.40204601380478]}}, {"type": "Feature", "properties": {"norad_id": 31275, "name": "FENGYUN 1C DEB", "group": "fengyun-1c-debris", "lat": -23.61100205078767, "lon": -156.15671978559553, "alt_km": 959.9677274502001, "timestamp": "2025-12-10T09:57:44.980759+00:00", "meta": {"OBJECT_NAME": "FENGYUN 1C DEB", "OBJECT_ID": "1999-025BNH", "EPOCH": "2025-12-10T02:08:30.107904", "MEAN_MOTION": 14.02309831, "ECCENTRICITY": 0.0103906, "INCLINATION": 98.9459, "RA_OF_ASC_NODE": 27.4715, "ARG_OF_PERICENTER": 0.5986, "MEAN_ANOMALY": 359.5286, "EPHEMERIS_TYPE": 0, "CLASSIFICATION_TYPE": "U", "NORAD_CAT_ID": 31275, "ELEMENT_SET_NO": 999, "REV_AT_EPOCH": 95449, "BSTAR": 0.0010955, "MEAN_MOTION_DOT": 1.718e-05, "MEAN_MOTION_DDOT": 0}, "tle": {"line1": "1 31275U 99025BNH 25344.08923736  .00001718  00000+0  10955-2 0  9997", "line2": "2 31275  98.9459  27.4715 0103906   0.5986 359.5286 14.02309831954497"}}, "geometry": {"type": "Point", "coordinates": [-156.15671978559553, -23.61100205078767]}}, {"type": "Feature", "properties": {"norad_id": 31279, "name": "FENGYUN 1C DEB", "group": "fengyun-1c-debris", "lat": 18.03671549533171, "lon": 175.56278189124524, "alt_km": 755.6984840274336, "timestamp": "2025-12-10T09:57:44.980769+00:00", "meta": {"OBJECT_NAME": "FENGYUN 1C DEB", "OBJECT_ID": "1999-025BNM", "EPOCH": "2025-12-09T18:03:08.568000", "MEAN_MOTION": 14.26297627, "ECCENTRICITY": 0.0073537, "INCLINATION": 98.517, "RA_OF_ASC_NODE": 352.1212, "ARG_OF_PERICENTER": 186.4144, "MEAN_ANOMALY": 173.6102, "EPHEMERIS_TYPE": 0, "CLASSIFICATION_TYPE": "U", "NORAD_CAT_ID": 31279, "ELEMENT_SET_NO": 999, "REV_AT_EPOCH": 97186, "BSTAR": 0.00078943, "MEAN_MOTION_DOT": 1.907e-05, "MEAN_MOTION_DDOT": 0}, "tle": {"line1": "1 31279U 99025BNM 25343.75218250  .00001907  00000+0  78943-3 0  9994", "line2": "2 31279  98.5170 352.1212 0073537 186.4144 173.6102 14.26297627971860"}}, "geometry": {"type": "Point", "coordinates": [175.56278189124524, 18.03671549533171]}}, {"type": "Feature", "properties": {"norad_id": 31281, "name": "FENGYUN 1C DEB", "group": "fengyun-1c-debris", "lat": 59.66808165976271, "lon": 104.69073622280402, "alt_km": 446.8799250781176, "timestamp": "2025-12-10T09:57:44.980780+00:00", "meta": {"OBJECT_NAME": "FENGYUN 1C DEB", "OBJECT_ID": "1999-025BNP", "EPOCH": "2025-12-08T19:42:23.749344", "MEAN_MOTION": 15.17014719, "ECCENTRICITY": 0.01144641, "INCLINATION": 98.3849, "RA_OF_ASC_NODE": 117.5295, "ARG_OF_PERICENTER": 104.9582, "MEAN_ANOMALY": 256.4354, "EPHEMERIS_TYPE": 0, "CLASSIFICATION_TYPE": "U", "NORAD_CAT_ID": 31281, "ELEMENT_SET_NO": 999, "REV_AT_EPOCH": 99672, "BSTAR": 0.001933862, "MEAN_MOTION_DOT": 0.00045449, "MEAN_MOTION_DDOT": 0}, "tle": {"line1": "1 31281U 99025BNP 25342.82110821  .00045449  00000+0  19339-2 0  9991", "line2": "2 31281  98.3849 117.5295 0114464 104.9582 256.4354 15.17014719996725"}}, "geometry": {"type": "Point", "coordinates": [104.69073622280402, 59.66808165976271]}}, {"type": "Feature", "properties": {"norad_id": 31282, "name": "FENGYUN 1C DEB", "group": "fengyun-1c-debris", "lat": -25.435936371396462, "lon": -94.07326428986836, "alt_km": 683.7059020720544, "timestamp": "2025-12-10T09:57:44.980790+00:00", "meta": {"OBJECT_NAME": "FENGYUN 1C DEB", "OBJECT_ID": "1999-025BNQ", "EPOCH": "2025-12-10T00:05:53.903040", "MEAN_MOTION": 14.43459599, "ECCENTRICITY": 0.0127135, "INCLINATION": 99.2166, "RA_OF_ASC_NODE": 261.0532, "ARG_OF_PERICENTER": 294.614, "MEAN_ANOMALY": 64.1847, "EPHEMERIS_TYPE": 0, "CLASSIFICATION_TYPE": "U", "NORAD_CAT_ID": 31282, "ELEMENT_SET_NO": 999, "REV_AT_EPOCH": 97081, "BSTAR": 0.00041721, "MEAN_MOTION_DOT": 1.498e-05, "MEAN_MOTION_DDOT": 0}, "tle": {"line1": "1 31282U 99025BNQ 25344.00409610  .00001498  00000+0  41721-3 0  9998", "line2": "2 31282  99.2166 261.0532 0127135 294.6140  64.1847 14.43459599970813"}}, "geometry": {"type": "Point", "coordinates": [-94.07326428986836, -25.435936371396462]}}, {"type": "Feature", "properties": {"norad_id": 31284, "name": "FENGYUN 1C DEB", "group": "fengyun-1c-debris", "lat": -78.59377147264286, "lon": 136.86611428557373, "alt_km": 997.4701359770561, "timestamp": "2025-12-10T09:57:44.980800+00:00", "meta": {"OBJECT_NAME": "FENGYUN 1C DEB", "OBJECT_ID": "1999-025BNS", "EPOCH": "2025-12-07T11:56:16.183392", "MEAN_MOTION": 13.97885245, "ECCENTRICITY": 0.01434438, "INCLINATION": 99.7228, "RA_OF_ASC_NODE": 75.5858, "ARG_OF_PERICENTER": 72.8247, "MEAN_ANOMALY": 288.8562, "EPHEMERIS_TYPE": 0, "CLASSIFICATION_TYPE": "U", "NORAD_CAT_ID": 31284, "ELEMENT_SET_NO": 999, "REV_AT_EPOCH": 95089, "BSTAR": 0.0011308484, "MEAN_MOTION_DOT": 1.7e-05, "MEAN_MOTION_DDOT": 0}, "tle": {"line1": "1 31284U 99025BNS 25341.49740953  .00001700  00000+0  11308-2 0  9991", "line2": "2 31284  99.7228  75.5858 0143443  72.8247 288.8562 13.97885245950896"}}, "geometry": {"type": "Point", "coordinates": [136.86611428557373, -78.59377147264286]}}, {"type": "Feature", "properties": {"norad_id": 31285, "name": "FENGYUN 1C DEB", "group": "fengyun-1c-debris", "lat": 26.811392984763913, "lon": -39.45282346135837, "alt_km": 943.0274999898638, "timestamp": "2025-12-10T09:57:44.980810+00:00", "meta": {"OBJECT_NAME": "FENGYUN 1C DEB", "OBJECT_ID": "1999-025BNT", "EPOCH": "2025-12-08T05:42:25.849152", "MEAN_MOTION": 14.26032889, "ECCENTRICITY": 0.0199382, "INCLINATION": 98.5185, "RA_OF_ASC_NODE": 322.7729, "ARG_OF_PERICENTER": 200.0417, "MEAN_ANOMALY": 176.4242, "EPHEMERIS_TYPE": 0, "CLASSIFICATION_TYPE": "U", "NORAD_CAT_ID": 31285, "ELEMENT_SET_NO": 999, "REV_AT_EPOCH": 97235, "BSTAR": 0.00033373235, "MEAN_MOTION_DOT": 9.35e-06, "MEAN_MOTION_DDOT": 0}, "tle": {"line1": "1 31285U 99025BNT 25342.23779918  .00000935  00000+0  33373-3 0  9994", "line2": "2 31285  98.5185 322.7729 0199382 200.0417 176.4242 14.26032889972350"}}, "geometry": {"type": "Point", "coordinates": [-39.45282346135837, 26.811392984763913]}}, {"type": "Feature", "properties": {"norad_id": 31286, "name": "FENGYUN 1C DEB", "group": "fengyun-1c-debris", "lat": 1.123200718921269, "lon": 54.713990771177414, "alt_km": 835.6329489137406, "timestamp": "2025-12-10T09:57:44.980839+00:00", "meta": {"OBJECT_NAME": "FENGYUN 1C DEB", "OBJECT_ID": "1999-025BNU", "EPOCH": "2025-12-08T21:40:20.388000", "MEAN_MOTION": 14.22675584, "ECCENTRICITY": 0.008086, "INCLINATION": 100.8609, "RA_OF_ASC_NODE": 232.6383, "ARG_OF_PERICENTER": 289.9444, "MEAN_ANOMALY": 69.3029, "EPHEMERIS_TYPE": 0, "CLASSIFICATION_TYPE": "U", "NORAD_CAT_ID": 31286, "ELEMENT_SET_NO": 999, "REV_AT_EPOCH": 63965, "BSTAR": 0.0039372, "MEAN_MOTION_DOT": 9.063e-05, "MEAN_MOTION_DDOT": 0}, "tle": {"line1": "1 31286U 99025BNU 25342.90301375  .00009063  00000+0  39372-2 0  9992", "line2": "2 31286 100.8609 232.6383 0080860 289.9444  69.3029 14.22675584639657"}}, "geometry": {"type": "Point", "coordinates": [54.713990771177414, 1.123200718921269]}}, {"type": "Feature", "properties": {"norad_id": 31287, "name": "FENGYUN 1C DEB", "group": "fengyun-1c-debris", "lat": -6.678892785967847, "lon": -140.9436734351553, "alt_km": 811.5246427628435, "timestamp": "2025-12-10T09:57:44.980851+00:00", "meta": {"OBJECT_NAME": "FENGYUN 1C DEB", "OBJECT_ID": "1999-025BNV", "EPOCH": "2025-12-01T09:50:16.615392", "MEAN_MOTION": 14.27891237, "ECCENTRICITY": 0.00285984, "INCLINATION": 99.4087, "RA_OF_ASC_NODE": 30.4771, "ARG_OF_PERICENTER": 95.3474, "MEAN_ANOMALY": 265.0968, "EPHEMERIS_TYPE": 0, "CLASSIFICATION_TYPE": "U", "NORAD_CAT_ID": 31287, "ELEMENT_SET_NO": 999, "REV_AT_EPOCH": 96524, "BSTAR": 0.0017630055, "MEAN_MOTION_DOT": 4.336e-05, "MEAN_MOTION_DDOT": 0}, "tle": {"line1": "1 31287U 99025BNV 25335.40991453  .00004336  00000+0  17630-2 0  9993", "line2": "2 31287  99.4087  30.4771 0028598  95.3474 265.0968 14.27891237965242"}}, "geometry": {"type": "Point", "coordinates": [-140.9436734351553, -6.678892785967847]}}, {"type": "Feature", "properties": {"norad_id": 31288, "name": "FENGYUN 1C DEB", "group": "fengyun-1c-debris", "lat": 56.72224058597949, "lon": -24.237317946704657, "alt_km": 592.2499215174994, "timestamp": "2025-12-10T09:57:44.980861+00:00", "meta": {"OBJECT_NAME": "FENGYUN 1C DEB", "OBJECT_ID": "1999-025BNW", "EPOCH": "2025-12-08T05:11:12.787872", "MEAN_MOTION": 14.94821402, "ECCENTRICITY": 0.00226187, "INCLINATION": 98.7475, "RA_OF_ASC_NODE": 139.7443, "ARG_OF_PERICENTER": 307.996, "MEAN_ANOMALY": 226.6023, "EPHEMERIS_TYPE": 0, "CLASSIFICATION_TYPE": "U", "NORAD_CAT_ID": 31288, "ELEMENT_SET_NO": 999, "REV_AT_EPOCH": 97489, "BSTAR": 0.0062848596, "MEAN_MOTION_DOT": 0.00069332, "MEAN_MOTION_DDOT": 0}, "tle": {"line1": "1 31288U 99025BNW 25342.21612023  .00069332  00000+0  62849-2 0  9993", "line2": "2 31288  98.7475 139.7443 0022618 307.9960 226.6023 14.94821402974891"}}, "geometry": {"type": "Point", "coordinates": [-24.237317946704657, 56.72224058597949]}}]}